OSCAR 7 (AO-7)          
1 07530U 74089B   20298.91857021 -.00000021  00000-0  15020-3 0  9992
2 07530 101.8187 268.0132 0012426 113.7288 314.4759 12.53645694102214
UOSAT 2 (UO-11)         
1 14781U 84021B   20298.95507157  .00000131  00000-0  22072-4 0  9998
2 14781  97.5908 304.4891 0009598 129.4629 230.7436 14.83202085951029
LUSAT (LO-19)           
1 20442U 90005G   20298.82914644  .00000028  00000-0  26612-4 0  9996
2 20442  98.7067 246.5959 0012551 130.4664 229.7616 14.32964154607082
EYESAT A (AO-27)        
1 22825U 93061C   20298.94824493 -.00000001  00000-0  17663-4 0  9991
2 22825  98.9267 304.6796 0008514   7.5180 352.6128 14.30095451412327
ITAMSAT (IO-26)         
1 22826U 93061D   20298.90426154  .00000002  00000-0  18753-4 0  9991
2 22826  98.9208 304.5670 0008815 355.1574   4.9520 14.30432165412551
RADIO ROSTO (RS-15)     
1 23439U 94085A   20298.87592329 -.00000054  00000-0 -33151-3 0  9990
2 23439  64.8192  36.9483 0152377  17.9732 342.6499 11.27568973 63779
JAS-2 (FO-29)           
1 24278U 96046B   20298.86577956 -.00000062  00000-0 -28381-4 0  9998
2 24278  98.5890  31.7899 0351004  39.9150 322.7242 13.53099936194386
TECHSAT 1B (GO-32)      
1 25397U 98043D   20298.54917802  .00000007  00000-0  22372-4 0  9994
2 25397  98.7401 239.1253 0002231  64.7415 295.3994 14.23692877157921
ISS (ZARYA)             
1 25544U 98067A   20299.20530372  .00001344  00000-0  32187-4 0  9991
2 25544  51.6449  65.1298 0001679  58.3916   6.2910 15.49331309252170
PCSAT (NO-44)           
1 26931U 01043C   20298.92648912 -.00000011  00000-0  27579-4 0  9998
2 26931  67.0506 168.2727 0006761 276.0764  83.9567 14.30591702995599
SAUDISAT 1C (SO-50)     
1 27607U 02058C   20298.60568080  .00000037  00000-0  25644-4 0  9996
2 27607  64.5561 339.4945 0033239 131.2325 229.1651 14.75670344959780
CUTE-1 (CO-55)          
1 27844U 03031E   20298.94806984  .00000069  00000-0  50595-4 0  9994
2 27844  98.6835 304.7350 0010628  45.3653 314.8390 14.22263002898501
CUBESAT XI-IV (CO-57)   
1 27848U 03031J   20298.94209431  .00000051  00000-0  42813-4 0  9997
2 27848  98.6897 305.2950 0010664  57.0707 303.1495 14.21846690898343
MOZHAYETS 4 (RS-22)     
1 27939U 03042A   20299.19511092  .00000125  00000-0  31093-4 0  9997
2 27939  98.1100  72.4342 0011808 307.1081  52.9043 14.66897414913030
CUBESAT XI-V            
1 28895U 05043F   20298.94974699  .00000190  00000-0  45241-4 0  9992
2 28895  98.0285  71.8189 0015839 229.5098 130.4725 14.63812968799556
CUTE-1.7+APD II (CO-65) 
1 32785U 08021C   20298.80359528  .00000355  00000-0  43696-4 0  9992
2 32785  97.5860 281.2158 0014457  67.1272 293.1471 14.88536318677111
DELFI-C3 (DO-64)        
1 32789U 08021G   20299.06951559  .00002052  00000-0  13707-3 0  9992
2 32789  97.4058 337.2717 0010884 225.7282 134.3054 15.08030760681446
SEEDS II (CO-66)        
1 32791U 08021J   20298.71424552  .00000651  00000-0  70842-4 0  9991
2 32791  97.5511 287.2252 0014214  37.2512 322.9690 14.91140722677644
YUBILEINY (RS-30)       
1 32953U 08025A   20299.13625139  .00000037  00000-0  19437-3 0  9996
2 32953  82.5059 197.2624 0019328 127.8859 232.3977 12.43098641563743
KKS-1 (KISEKI)          
1 33499U 09002H   20298.90360628  .00000129  00000-0  26913-4 0  9991
2 33499  98.2985 157.1565 0010349  74.2889 285.9460 14.75570055631672
SWISSCUBE               
1 35932U 09051B   20298.44497509  .00000173  00000-0  50055-4 0  9990
2 35932  98.6107 124.9006 0008671  91.2749 268.9441 14.56437172588602
BEESAT-1                
1 35933U 09051C   20299.10785307  .00000138  00000-0  42088-4 0  9999
2 35933  98.6089 127.4511 0006872 100.4343 259.7629 14.56507626588850
ITUPSAT1                
1 35935U 09051E   20298.49143268  .00000117  00000-0  38099-4 0  9990
2 35935  98.6196 126.9956 0009166 102.6334 257.5888 14.55648837588448
XIWANG-1 (HOPE-1)       
1 36122U 09072B   20298.84073933 -.00000039  00000-0  92824-5 0  9993
2 36122 100.1051 283.5813 0006971 287.2023  72.8327 13.16356987521894
JUGNU                   
1 37839U 11058B   20298.89500817  .00000319  00000-0  28163-4 0  9991
2 37839  19.9604 217.7745 0018875  15.9532  40.8326 14.12692355467118
SRMSAT                  
1 37841U 11058D   20299.16454573  .00000324  00000-0  32654-4 0  9998
2 37841  19.9722 283.1532 0011701 227.9858 217.3695 14.10677096466594
M-CUBED & EXP-1 PRIME   
1 37855U 11061F   20298.89071266  .00001520  00000-0  81636-4 0  9993
2 37855 101.7268  94.1288 0169879  50.6874 310.9261 15.06668196490695
STRAND-1                
1 39090U 13009E   20298.82775489  .00000037  00000-0  28086-4 0  9993
2 39090  98.4441 140.3391 0007997 259.1291 100.8995 14.35149344401246
SOMP                    
1 39134U 13015E   20298.95348208  .00002597  00000-0  12361-3 0  9999
2 39134  64.8640 217.6420 0022481 224.4790 135.4534 15.21401557415373
BEESAT-3                
1 39135U 13015F   20298.93545333  .00001605  00000-0  86671-4 0  9991
2 39135  64.8659 243.1636 0026595 221.9831 137.9257 15.18450151414878
BEESAT-2                
1 39136U 13015G   20298.83729090  .00001977  00000-0  10559-3 0  9998
2 39136  64.8750 248.9269 0035154 266.3002  93.4104 15.17854049414757
ZACUBE-1 (TSHEPISOSAT)  
1 39417U 13066B   20298.92491143  .00000265  00000-0  39538-4 0  9999
2 39417  97.5738 289.8009 0057924 212.1509 147.6168 14.81338753374200
GOMX-1                  
1 39430U 13066Q   20299.11187670  .00000228  00000-0  49868-4 0  9999
2 39430  97.7979 229.8503 0151561 135.6977 225.6473 14.59451760368711
CUBEBUG-2 (LO-74)       
1 39440U 13066AA  20298.90090513  .00000320  00000-0  51383-4 0  9993
2 39440  97.6462 274.3459 0078590 280.2528  78.9828 14.76076353371674
FUNCUBE-1 (AO-73)       
1 39444U 13066AE  20298.91518302  .00000356  00000-0  49875-4 0  9991
2 39444  97.5668 292.0873 0057212 203.6322 156.2263 14.82205351372540
UWE-3                   
1 39446U 13066AG  20298.93863624  .00000280  00000-0  43790-4 0  9991
2 39446  97.6112 281.5158 0068449 247.0075 112.3907 14.78608453371707
SPROUT                  
1 39770U 14029E   20299.21498797  .00000963  00000-0  11124-3 0  9991
2 39770  97.9043  45.0075 0007968 260.3204  99.7117 14.87923530348357
UNISAT-6                
1 40012U 14033C   20299.18608846  .00000251  00000-0  44623-4 0  9992
2 40012  97.6950 147.6953 0057091 301.9080  57.6583 14.74171236341539
DUCHIFAT-1              
1 40021U 14033M   20298.87334527  .00000520  00000-0  58452-4 0  9993
2 40021  97.9488 230.9389 0011774 216.2495 143.7926 14.91012739345176
QB50P1                  
1 40025U 14033R   20298.86767819  .00000452  00000-0  53758-4 0  9998
2 40025  97.9169 223.1655 0011186 229.8845 130.1392 14.89215271344351
NUDT-PHONESAT           
1 40900U 15049B   20298.84515223  .00002809  00000-0  11662-3 0  9991
2 40900  97.4306 308.7111 0010747 245.3176 239.0678 15.24629630282906
ZDPS 2A                 
1 40901U 15049C   20299.22297660  .00001491  00000-0  75366-4 0  9995
2 40901  97.4644 303.2574 0011653 283.9180 137.1627 15.18572677282267
ZDPS 2B                 
1 40902U 15049D   20298.87312843  .00001486  00000-0  75111-4 0  9999
2 40902  97.4651 300.1840 0011526 281.6652 124.5880 15.18574311282185
XW-2A                   
1 40903U 15049E   20299.17886387  .00002883  00000-0  65866-4 0  9991
2 40903  97.2724 348.1466 0013924 145.2752 291.3953 15.43594789286481
KAITUO 1A               
1 40904U 15049F   20299.23649597  .00000486  00000-0  28870-4 0  9990
2 40904  97.4820 298.3603 0013115 297.5593 118.1503 15.15824728281903
2015-049G               
1 40905U 15049G   20299.22206108  .00000273  00000-0  18303-4 0  9991
2 40905  97.4921 295.4971 0014109 294.3561 121.5007 15.14660088281729
XW-2C                   
1 40906U 15049H   20299.24940663  .00000976  00000-0  53891-4 0  9996
2 40906  97.4823 298.7281 0013058 286.2587  84.5429 15.16232077281924
XW-2D                   
1 40907U 15049J   20299.23068579  .00000824  00000-0  45691-4 0  9994
2 40907  97.4806 298.4388 0012483 282.9759 132.8460 15.16483608281948
LILACSAT-2              
1 40908U 15049K   20298.90441552  .00000360  00000-0  23369-4 0  9997
2 40908  97.4974 296.2928 0014332 297.2440 124.5318 15.14135898281585
XW-2F                   
1 40910U 15049M   20299.08145345  .00001316  00000-0  67613-4 0  9993
2 40910  97.4719 301.0570 0012843 271.0004 160.2392 15.18196420282003
XW-2B                   
1 40911U 15049N   20299.22178534  .00000734  00000-0  41164-4 0  9992
2 40911  97.4813 299.1271 0012385 284.2604 135.4207 15.16406261281831
KAITUO 1B               
1 40912U 15049P   20298.87944654  .00001493  00000-0  71150-4 0  9998
2 40912  97.4496 305.1228 0013105 243.9349 235.5717 15.20622702282382
TIANWANG 1C (TW-1C)     
1 40926U 15051B   20299.11789236  .00050817  00000-0  37662-3 0  9990
2 40926  97.0669 352.1505 0003064 328.7460  84.7742 15.72759576287355
TIANWANG 1A (TW-1A)     
1 40928U 15051D   20298.85656339  .00004175  00000-0  95326-4 0  9997
2 40928  97.1005 323.5249 0012244  75.5172  49.3906 15.43342215285326
LAPAN-A2                
1 40931U 15052B   20298.69147104  .00000858  00000-0  30352-4 0  9991
2 40931   5.9994 133.7428 0014207 307.1936  52.6934 14.76648147274398
E-ST@R-II               
1 41459U 16025D   20299.10698084  .00002794  00000-0  14135-3 0  9994
2 41459  98.1160  55.9685 0165040 135.0414 226.4317 15.06834517246964
AAUSAT 4                
1 41460U 16025E   20299.03973579  .00003922  00000-0  19043-3 0  9990
2 41460  98.1150  58.7070 0153188 122.6725 238.9393 15.09328929247186
NUSAT-1 (FRESCO)        
1 41557U 16033B   20299.11678538  .00001738  00000-0  65587-4 0  9990
2 41557  97.4008  28.5060 0013210 356.3047 120.1717 15.28337320245574
BEESAT-4                
1 41619U 16040W   20298.89100303  .00002371  00000-0  99540-4 0  9991
2 41619  97.3048 355.2809 0012697  84.6681 275.6005 15.24357449229118
